NORAD_CAT_ID,OBJECT_NAME,OBJECT_TYPE,EPOCH,MEAN_MOTION,ECCENTRICITY,INCLINATION,RA_OF_ASC_NODE,ARG_OF_PERICENTER,MEAN_ANOMALY,BSTAR,MEAN_MOTION_DOT,MEAN_MOTION_DDOT,TLE_LINE0,TLE_LINE1,TLE_LINE2,SEMIMAJOR_AXIS,PERIOD,APOGEE,PERIGEE,DECAYED
55939.0,STARLINK-5918,PAYLOAD,2024-05-16 10:46:05,14.98347525,0.00032,69.9986,154.1726,259.9718,100.108,0.00024311,2.81e-05,0.0,0 STARLINK-5918,1 55939U 23037AB  24137.44867858  .00002810  00000-0  24311-3 0  9998,2 55939  69.9986 154.1726 0003200 259.9718 100.1080 14.98347525 64785,6950.139,96.106,574.228,569.78,0.0
55939.0,STARLINK-5918,PAYLOAD,2024-05-16 18:46:46,14.98330266,0.0003,69.9984,153.3295,257.8296,102.2527,0.00033786,3.941e-05,0.0,0 STARLINK-5918,1 55939U 23037AB  24137.78248638  .00003941  00000-0  33786-3 0  9996,2 55939  69.9984 153.3295 0003000 257.8296 102.2527 14.98330266 65178,6950.192,96.107,574.142,569.972,0.0
55939.0,STARLINK-5918,PAYLOAD,2024-05-17 10:48:07,14.98335559,0.0003135,69.9986,151.6476,260.1347,99.9458,-2.2006e-05,-3.56e-06,0.0,0 STARLINK-5918,1 55939U 23037AB  24138.45008334 -.00000356  00000-0 -22006-4 0  9991,2 55939  69.9986 151.6476 0003135 260.1347  99.9458 14.98335559 64933,6950.176,96.107,574.22,569.862,0.0
55939.0,STARLINK-5918,PAYLOAD,2024-05-17 18:48:47,14.98336727,0.0003064,69.9988,150.8047,259.3943,100.6871,-4.6136e-05,-6.44e-06,0.0,0 STARLINK-5918,1 55939U 23037AB  24138.78388155 -.00000644  00000-0 -46136-4 0  9999,2 55939  69.9988 150.8047 0003064 259.3943 100.6871 14.98336727 65324,6950.172,96.107,574.167,569.908,0.0
55939.0,STARLINK-5918,PAYLOAD,2024-05-18 10:50:07,14.98341276,0.0003147,69.9984,149.1228,263.0364,97.0437,-5.953e-05,-8.03e-06,0.0,0 STARLINK-5918,1 55939U 23037AB  24139.45147477 -.00000803  00000-0 -59530-4 0  9993,2 55939  69.9984 149.1228 0003147 263.0364  97.0437 14.98341276 65088,6950.158,96.106,574.21,569.836,0.0
55939.0,STARLINK-5918,PAYLOAD,2024-05-19 02:51:28,14.98326908,0.0003024,69.9987,147.4395,264.6478,95.4336,7.9305e-06,2e-08,0.0,0 STARLINK-5918,1 55939U 23037AB  24140.11908081  .00000002  00000-0  79305-5 0  9996,2 55939  69.9987 147.4395 0003024 264.6478  95.4336 14.98326908 65528,6950.202,96.107,574.169,569.966,0.0
55939.0,STARLINK-5918,PAYLOAD,2024-05-19 10:52:08,14.98327895,0.0003,69.9987,146.5979,264.9271,95.1546,2.3076e-05,1.82e-06,0.0,0 STARLINK-5918,1 55939U 23037AB  24140.45288042  .00000182  00000-0  23076-4 0  9993,2 55939  69.9987 146.5979 0003000 264.9271  95.1546 14.98327895 65238,6950.199,96.107,574.149,569.979,0.0
55939.0,STARLINK-5918,PAYLOAD,2024-05-20 04:29:37,14.98333322,0.0003034,69.9986,144.7463,264.4258,95.6555,4.1888e-05,4.07e-06,0.0,0 STARLINK-5918,1 55939U 23037AB  24141.18723598  .00000407  00000-0  41888-4 0  9995,2 55939  69.9986 144.7463 0003034 264.4258  95.6555 14.98333322 65688,6950.183,96.107,574.156,569.939,0.0
55939.0,STARLINK-5918,PAYLOAD,2024-05-20 09:18:01,14.9833431,0.0003036,69.9986,144.2413,264.7534,95.3278,4.0006e-05,3.84e-06,0.0,0 STARLINK-5918,1 55939U 23037AB  24141.38751498  .00000384  00000-0  40006-4 0  9992,2 55939  69.9986 144.2413 0003036 264.7534  95.3278 14.98334310 65373,6950.18,96.107,574.155,569.934,0.0
55939.0,STARLINK-5918,PAYLOAD,2024-05-21 04:31:38,14.98327722,0.0003043,69.9985,142.2213,265.3056,94.7756,3.466e-05,3.21e-06,0.0,0 STARLINK-5918,1 55939U 23037AB  24142.18863895  .00000321  00000-0  34660-4 0  9996,2 55939  69.9985 142.2213 0003043 265.3056  94.7756 14.98327722 65836,6950.2,96.107,574.18,569.95,0.0
55939.0,STARLINK-5918,PAYLOAD,2024-05-21 07:43:54,14.98327372,0.0003046,69.9986,141.8847,265.2204,94.8608,2.8866e-05,2.51e-06,0.0,0 STARLINK-5918,1 55939U 23037AB  24142.32215948  .00000251  00000-0  28866-4 0  9995,2 55939  69.9986 141.8847 0003046 265.2204  94.8608 14.98327372 65515,6950.201,96.107,574.183,569.949,0.0
55939.0,STARLINK-5918,PAYLOAD,2024-05-22 04:33:39,14.98333833,0.0003041,69.9987,139.6971,264.96,95.1212,2.7487e-05,2.35e-06,0.0,0 STARLINK-5918,1 55939U 23037AB  24143.19003474  .00000235  00000-0  27487-4 0  9990,2 55939  69.9987 139.6971 0003041 264.9600  95.1212 14.98333833 65985,6950.181,96.107,574.16,569.932,0.0
55939.0,STARLINK-5918,PAYLOAD,2024-05-22 09:22:03,14.98333971,0.0003029,69.9987,139.1922,264.8242,95.2572,2.8576e-05,2.48e-06,0.0,0 STARLINK-5918,1 55939U 23037AB  24143.39031412  .00000248  00000-0  28576-4 0  9999,2 55939  69.9987 139.1922 0003029 264.8242  95.2572 14.98333971 65672,6950.181,96.107,574.151,569.94,0.0
55939.0,STARLINK-5918,PAYLOAD,2024-05-23 04:35:40,14.98328076,0.0003028,69.9988,137.1725,264.3779,95.7035,2.905e-05,2.54e-06,0.0,0 STARLINK-5918,1 55939U 23037AB  24144.19143708  .00000254  00000-0  29050-4 0  9995,2 55939  69.9988 137.1725 0003028 264.3779  95.7035 14.98328076 66132,6950.199,96.107,574.168,569.959,0.0
55939.0,STARLINK-5918,PAYLOAD,2024-05-23 09:24:04,14.98328365,0.0003016,69.9988,136.6678,264.0948,95.9868,3.0067e-05,2.66e-06,0.0,0 STARLINK-5918,1 55939U 23037AB  24144.39171701  .00000266  00000-0  30067-4 0  9994,2 55939  69.9988 136.6678 0003016 264.0948  95.9868 14.98328365 65827,6950.198,96.107,574.159,569.967,0.0
55939.0,STARLINK-5918,PAYLOAD,2024-05-24 04:37:40,14.98333448,0.0003034,69.9988,134.6472,265.0636,95.0177,1.6932e-05,1.09e-06,0.0,0 STARLINK-5918,1 55939U 23037AB  24145.19283313  .00000109  00000-0  16932-4 0  9997,2 55939  69.9988 134.6472 0003034 265.0636  95.0177 14.98333448 66285,6950.182,96.107,574.156,569.939,0.0
55939.0,STARLINK-5918,PAYLOAD,2024-05-24 09:26:04,14.98335198,0.0003013,69.9988,134.1421,265.3023,94.7792,3.7627e-05,3.56e-06,0.0,0 STARLINK-5918,1 55939U 23037AB  24145.39311090  .00000356  00000-0  37627-4 0  9991,2 55939  69.9988 134.1421 0003013 265.3023  94.7792 14.98335198 65972,6950.177,96.107,574.136,569.948,0.0
55939.0,STARLINK-5918,PAYLOAD,2024-05-24 22:15:09,14.9832685,0.0002851,69.9991,132.7958,263.1469,96.9366,2.4061e-05,1.94e-06,0.0,0 STARLINK-5918,1 55939U 23037AB  24145.92719594  .00000194  00000-0  24061-4 0  9999,2 55939  69.9991 132.7958 0002851 263.1469  96.9366 14.98326850 66050,6950.203,96.107,574.049,570.086,0.0
55939.0,STARLINK-5918,PAYLOAD,2024-05-25 04:39:42,14.98325171,0.0002861,69.999,132.1222,266.0022,94.081,3.3792e-06,-5.3e-07,0.0,0 STARLINK-5918,1 55939U 23037AB  24146.19423828 -.00000053  00000-0  33792-5 0  9998,2 55939  69.9990 132.1222 0002861 266.0022  94.0810 14.98325171 66435,6950.208,96.107,574.061,570.084,0.0
55939.0,STARLINK-5918,PAYLOAD,2024-05-25 09:28:06,14.98325383,0.0002863,69.999,131.6172,266.7118,93.3714,3.7931e-06,-4.8e-07,0.0,0 STARLINK-5918,1 55939U 23037AB  24146.39451866 -.00000048  00000-0  37931-5 0  9996,2 55939  69.9990 131.6172 0002863 266.7118  93.3714 14.98325383 66124,6950.207,96.107,574.062,570.082,0.0
55939.0,STARLINK-5918,PAYLOAD,2024-05-25 15:52:36,14.98351296,0.0002953,69.9996,130.9438,268.6556,91.4265,0.00028431,3.303e-05,0.0,0 STARLINK-5918,1 55939U 23037AB  24146.66153701  .00003303  00000-0  28431-3 0  9992,2 55939  69.9996 130.9438 0002953 268.6556  91.4265 14.98351296 66508,6950.127,96.106,574.044,569.94,0.0
55939.0,STARLINK-5918,PAYLOAD,2024-05-26 04:41:42,14.98331708,0.000291,69.9985,129.5969,263.9361,96.1466,1.6081e-05,9.9e-07,0.0,0 STARLINK-5918,1 55939U 23037AB  24147.19563387  .00000099  00000-0  16081-4 0  9994,2 55939  69.9985 129.5969 0002910 263.9361  96.1466 14.98331708 66583,6950.188,96.107,574.075,570.03,0.0
55939.0,STARLINK-5918,PAYLOAD,2024-05-26 07:53:58,14.9833277,0.0002881,69.9986,129.2602,265.483,94.6,2.5135e-05,2.07e-06,0.0,0 STARLINK-5918,1 55939U 23037AB  24147.32915291  .00000207  00000-0  25135-4 0  9995,2 55939  69.9986 129.2602 0002881 265.4830  94.6000 14.98332770 66262,6950.184,96.107,574.052,570.047,0.0
55939.0,STARLINK-5918,PAYLOAD,2024-05-26 22:19:11,14.9832755,0.0002974,69.9991,127.7461,270.206,89.8758,6.9818e-05,7.4e-06,0.0,0 STARLINK-5918,1 55939U 23037AB  24147.92999458  .00000740  00000-0  69818-4 0  9996,2 55939  69.9991 127.7461 0002974 270.2060  89.8758 14.98327550 66352,6950.2,96.107,574.132,569.998,0.0
55939.0,STARLINK-5918,PAYLOAD,2024-05-27 04:43:43,14.98335153,0.0002506,70.0002,127.0733,257.4751,102.6128,0.00016191,1.84e-05,0.0,0 STARLINK-5918,1 55939U 23037AB  24148.19702712  .00001840  00000-0  16191-3 0  9998,2 55939  70.0002 127.0733 0002506 257.4751 102.6128 14.98335153 66733,6950.177,96.107,573.784,570.3,0.0
55939.0,STARLINK-5918,PAYLOAD,2024-05-27 07:55:58,14.98341839,0.0002846,69.9991,126.736,262.1771,97.9065,0.00020447,2.348e-05,0.0,0 STARLINK-5918,1 55939U 23037AB  24148.33054041  .00002348  00000-0  20447-3 0  9992,2 55939  69.9991 126.7360 0002846 262.1771  97.9065 14.98341839 66757,6950.156,96.106,573.999,570.043,0.0
55939.0,STARLINK-5918,PAYLOAD,2024-05-27 22:21:12,14.98329608,0.0002173,70.0015,125.2228,239.7717,120.3227,6.4834e-05,6.81e-06,0.0,0 STARLINK-5918,1 55939U 23037AB  24148.93138982  .00000681  00000-0  64834-4 0  9992,2 55939  70.0015 125.2228 0002173 239.7717 120.3227 14.98329608 66501,6950.194,96.107,573.569,570.549,0.0
55939.0,STARLINK-5918,PAYLOAD,2024-05-28 04:45:44,14.98326355,0.0002628,70.0007,124.5503,238.1436,121.9468,-2.2486e-05,-3.61e-06,0.0,0 STARLINK-5918,1 55939U 23037AB  24149.19843479 -.00000361  00000-0 -22486-4 0  9999,2 55939  70.0007 124.5503 0002628 238.1436 121.9468 14.98326355 66887,6950.204,96.107,573.896,570.243,0.0
55939.0,STARLINK-5918,PAYLOAD,2024-05-28 07:58:01,14.98319753,0.0002489,70.0001,124.2119,255.5329,104.5554,-9.0011e-05,-1.166e-05,0.0,0 STARLINK-5918,1 55939U 23037AB  24149.33196143 -.00001166  00000-0 -90011-4 0  9997,2 55939  70.0001 124.2119 0002489 255.5329 104.5554 14.98319753 66900,6950.225,96.108,573.819,570.36,0.0
55939.0,STARLINK-5918,PAYLOAD,2024-05-28 22:23:13,14.98327046,0.0003317,69.9981,122.6949,271.1028,88.9751,-1.7651e-05,-3.04e-06,0.0,0 STARLINK-5918,1 55939U 23037AB  24149.93279453 -.00000304  00000-0 -17651-4 0  9991,2 55939  69.9981 122.6949 0003317 271.1028  88.9751 14.98327046 66658,6950.202,96.107,574.372,569.762,0.0
